HONGHU-3_L_00001011-38
1 47593U 25860GA  26070.40780093  .00000000  00000+0  00000-0 0  9994
2 47593  48.0000 180.0000 0000000   0.0000 140.4000 15.76628882    14
HONGHU-3_L_00001011-39
1 47594U 22531HI  26070.40780093  .00000000  00000+0  00000-0 0  9997
2 47594  48.0000 180.0000 0000000   0.0000 144.0000 15.76628882    15
HONGHU-3_L_00001011-40
1 47595U 25541VS  26070.40780093  .00000000  00000+0  00000-0 0  9992
2 47595  48.0000 180.0000 0000000   0.0000 147.6000 15.76628882    15
HONGHU-3_L_00001011-41
1 47596U 24492MH  26070.40780093  .00000000  00000+0  00000-0 0  9997
2 47596  48.0000 180.0000 0000000   0.0000 151.2000 15.76628882    17
HONGHU-3_L_00001011-42
1 47597U 25767QP  26070.40780093  .00000000  00000+0  00000-0 0  9994
2 47597  48.0000 180.0000 0000000   0.0000 154.8000 15.76628882    17
HONGHU-3_L_00001011-43
1 47598U 26026R   26070.40780093  .00000000  00000+0  00000-0 0  9994
2 47598  48.0000 180.0000 0000000   0.0000 158.4000 15.76628882    18
HONGHU-3_L_00001011-44
1 47599U 24534BT  26070.40780093  .00000000  00000+0  00000-0 0  9997
2 47599  48.0000 180.0000 0000000   0.0000 162.0000 15.76628882    10
HONGHU-3_L_00001011-45
1 47600U 22155HR  26070.40780093  .00000000  00000+0  00000-0 0  9997
2 47600  48.0000 180.0000 0000000   0.0000 165.6000 15.76628882    12
HONGHU-3_L_00001011-46
1 47601U 23400XP  26070.40780093  .00000000  00000+0  00000-0 0  9992
2 47601  48.0000 180.0000 0000000   0.0000 169.2000 15.76628882    13
HONGHU-3_L_00001011-47
1 47602U 24080MY  26070.40780093  .00000000  00000+0  00000-0 0  9998
2 47602  48.0000 180.0000 0000000   0.0000 172.8000 15.76628882    14
HONGHU-3_L_00001011-48
1 47603U 23273GB  26070.40780093  .00000000  00000+0  00000-0 0  9992
2 47603  48.0000 180.0000 0000000   0.0000 176.4000 15.76628882    15
HONGHU-3_L_00001011-49
1 47604U 23362CB  26070.40780093  .00000000  00000+0  00000-0 0  9992
2 47604  48.0000 180.0000 0000000   0.0000 180.0000 15.76628882    17
HONGHU-3_L_00001011-50
1 47605U 26960FL  26070.40780093  .00000000  00000+0  00000-0 0  9990
2 47605  48.0000 180.0000 0000000   0.0000 183.6000 15.76628882    17
HONGHU-3_L_00001011-51
1 47606U 22869RL  26070.40780093  .00000000  00000+0  00000-0 0  9995
2 47606  48.0000 180.0000 0000000   0.0000 187.2000 15.76628882    18
HONGHU-3_L_00001011-52
1 47607U 22181UT  26070.40780093  .00000000  00000+0  00000-0 0  9993
2 47607  48.0000 180.0000 0000000   0.0000 190.8000 15.76628882    19
HONGHU-3_L_00001011-53
1 47608U 26820HD  26070.40780093  .00000000  00000+0  00000-0 0  9998
2 47608  48.0000 180.0000 0000000   0.0000 194.4000 15.76628882    10
HONGHU-3_L_00001011-54
1 47609U 26053JA  26070.40780093  .00000000  00000+0  00000-0 0  9997
2 47609  48.0000 180.0000 0000000   0.0000 198.0000 15.76628882    11
HONGHU-3_L_00001011-55
1 47610U 22961LN  26070.40780093  .00000000  00000+0  00000-0 0  9993
2 47610  48.0000 180.0000 0000000   0.0000 201.6000 15.76628882    14
HONGHU-3_L_00001011-56
1 47611U 22431FP  26070.40780093  .00000000  00000+0  00000-0 0  9996
2 47611  48.0000 180.0000 0000000   0.0000 205.2000 15.76628882    15
HONGHU-3_L_00001011-57
1 47612U 23802BL  26070.40780093  .00000000  00000+0  00000-0 0  9990
2 47612  48.0000 180.0000 0000000   0.0000 208.8000 15.76628882    15
HONGHU-3_L_00001011-58
1 47613U 22022JX  26070.40780093  .00000000  00000+0  00000-0 0  9994
2 47613  48.0000 180.0000 0000000   0.0000 212.4000 15.76628882    17
HONGHU-3_L_00001011-59
1 47614U 22245HI  26070.40780093  .00000000  00000+0  00000-0 0  9992
2 47614  48.0000 180.0000 0000000   0.0000 216.0000 15.76628882    18
HONGHU-3_L_00001011-60
1 47615U 22294FD  26070.40780093  .00000000  00000+0  00000-0 0  9997
2 47615  48.0000 180.0000 0000000   0.0000 219.6000 15.76628882    18
HONGHU-3_L_00001011-61
1 47616U 25947ZW  26070.40780093  .00000000  00000+0  00000-0 0  9996
2 47616  48.0000 180.0000 0000000   0.0000 223.2000 15.76628882    10
HONGHU-3_L_00001011-62
1 47617U 22391OU  26070.40780093  .00000000  00000+0  00000-0 0  9997
2 47617  48.0000 180.0000 0000000   0.0000 226.8000 15.76628882    10
HONGHU-3_L_00001011-63
1 47618U 26939FU  26070.40780093  .00000000  00000+0  00000-0 0  9990
2 47618  48.0000 180.0000 0000000   0.0000 230.4000 15.76628882    12
HONGHU-3_L_00001011-64
1 47619U 24957AC  26070.40780093  .00000000  00000+0  00000-0 0  9999
2 47619  48.0000 180.0000 0000000   0.0000 234.0000 15.76628882    13
HONGHU-3_L_00001011-65
1 47620U 23227JG  26070.40780093  .00000000  00000+0  00000-0 0  9990
2 47620  48.0000 180.0000 0000000   0.0000 237.6000 15.76628882    14
HONGHU-3_L_00001011-66
1 47621U 24027GV  26070.40780093  .00000000  00000+0  00000-0 0  9990
2 47621  48.0000 180.0000 0000000   0.0000 241.2000 15.76628882    16
HONGHU-3_L_00001011-67
1 47622U 25072AJ  26070.40780093  .00000000  00000+0  00000-0 0  9992
2 47622  48.0000 180.0000 0000000   0.0000 244.8000 15.76628882    16
HONGHU-3_L_00001011-68
1 47623U 25963QT  26070.40780093  .00000000  00000+0  00000-0 0  9992
2 47623  48.0000 180.0000 0000000   0.0000 248.4000 15.76628882    17
HONGHU-3_L_00001011-69
1 47624U 24688DM  26070.40780093  .00000000  00000+0  00000-0 0  9996
2 47624  48.0000 180.0000 0000000   0.0000 252.0000 15.76628882    19
HONGHU-3_L_00001011-70
1 47625U 25104NZ  26070.40780093  .00000000  00000+0  00000-0 0  9991
2 47625  48.0000 180.0000 0000000   0.0000 255.6000 15.76628882    19
HONGHU-3_L_00001011-71
1 47626U 24404VA  26070.40780093  .00000000  00000+0  00000-0 0  9994
2 47626  48.0000 180.0000 0000000   0.0000 259.2000 15.76628882    10
HONGHU-3_L_00001011-72
1 47627U 24714XE  26070.40780093  .00000000  00000+0  00000-0 0  9999
2 47627  48.0000 180.0000 0000000   0.0000 262.8000 15.76628882    11
HONGHU-3_L_00001011-73
1 47628U 26852LJ  26070.40780093  .00000000  00000+0  00000-0 0  9995
2 47628  48.0000 180.0000 0000000   0.0000 266.4000 15.76628882    12
HONGHU-3_L_00001011-74
1 47629U 25131DY  26070.40780093  .00000000  00000+0  00000-0 0  9995
2 47629  48.0000 180.0000 0000000   0.0000 270.0000 15.76628882    14
HONGHU-3_L_00001011-75
1 47630U 23580TB  26070.40780093  .00000000  00000+0  00000-0 0  9993
2 47630  48.0000 180.0000 0000000   0.0000 273.6000 15.76628882    15
HONGHU-3_L_00001011-76
1 47631U 25465KS  26070.40780093  .00000000  00000+0  00000-0 0  9998
2 47631  48.0000 180.0000 0000000   0.0000 277.2000 15.76628882    16
HONGHU-3_L_00001011-77
1 47632U 23826JX  26070.40780093  .00000000  00000+0  00000-0 0  9998
2 47632  48.0000 180.0000 0000000   0.0000 280.8000 15.76628882    17
HONGHU-3_L_00001011-78
1 47633U 26099TV  26070.40780093  .00000000  00000+0  00000-0 0  9994
2 47633  48.0000 180.0000 0000000   0.0000 284.4000 15.76628882    18
HONGHU-3_L_00001011-79
1 47634U 26940MZ  26070.40780093  .00000000  00000+0  00000-0 0  9990
2 47634  48.0000 180.0000 0000000   0.0000 288.0000 15.76628882    19
HONGHU-3_L_00001011-80
1 47635U 26621DQ  26070.40780093  .00000000  00000+0  00000-0 0  9997
2 47635  48.0000 180.0000 0000000   0.0000 291.6000 15.76628882    10
HONGHU-3_L_00001011-81
1 47636U 26386OC  26070.40780093  .00000000  00000+0  00000-0 0  9996
2 47636  48.0000 180.0000 0000000   0.0000 295.2000 15.76628882    11
HONGHU-3_L_00001011-82
1 47637U 24289GO  26070.40780093  .00000000  00000+0  00000-0 0  9997
2 47637  48.0000 180.0000 0000000   0.0000 298.8000 15.76628882    11
HONGHU-3_L_00001011-83
1 47638U 25549YV  26070.40780093  .00000000  00000+0  00000-0 0  9998
2 47638  48.0000 180.0000 0000000   0.0000 302.4000 15.76628882    14
HONGHU-3_L_00001011-84
1 47639U 26158W   26070.40780093  .00000000  00000+0  00000-0 0  9996
2 47639  48.0000 180.0000 0000000   0.0000 306.0000 15.76628882    15
HONGHU-3_L_00001011-85
1 47640U 25173DL  26070.40780093  .00000000  00000+0  00000-0 0  9994
2 47640  48.0000 180.0000 0000000   0.0000 309.6000 15.76628882    16
HONGHU-3_L_00001011-86
1 47641U 26743AW  26070.40780093  .00000000  00000+0  00000-0 0  9999
2 47641  48.0000 180.0000 0000000   0.0000 313.2000 15.76628882    18
HONGHU-3_L_00001011-87
1 47642U 26283EU  26070.40780093  .00000000  00000+0  00000-0 0  9999
2 47642  48.0000 180.0000 0000000   0.0000 316.8000 15.76628882    18
HONGHU-3_L_00001011-88
1 47643U 25066KJ  26070.40780093  .00000000  00000+0  00000-0 0  9998
2 47643  48.0000 180.0000 0000000   0.0000 320.4000 15.76628882    10
HONGHU-3_L_00001011-89
1 47644U 22546CB  26070.40780093  .00000000  00000+0  00000-0 0  9999
2 47644  48.0000 180.0000 0000000   0.0000 324.0000 15.76628882    11
HONGHU-3_L_00001011-90
1 47645U 25197BN  26070.40780093  .00000000  00000+0  00000-0 0  9995
2 47645  48.0000 180.0000 0000000   0.0000 327.6000 15.76628882    11
HONGHU-3_L_00001011-91
1 47646U 23002CO  26070.40780093  .00000000  00000+0  00000-0 0  9999
2 47646  48.0000 180.0000 0000000   0.0000 331.2000 15.76628882    13
HONGHU-3_L_00001011-92
1 47647U 22043MS  26070.40780093  .00000000  00000+0  00000-0 0  9994
2 47647  48.0000 180.0000 0000000   0.0000 334.8000 15.76628882    13
HONGHU-3_L_00001011-93
1 47648U 22562LF  26070.40780093  .00000000  00000+0  00000-0 0  9991
2 47648  48.0000 180.0000 0000000   0.0000 338.4000 15.76628882    14
HONGHU-3_L_00001011-94
1 47649U 25797JB  26070.40780093  .00000000  00000+0  00000-0 0  9995
2 47649  48.0000 180.0000 0000000   0.0000 342.0000 15.76628882    16
HONGHU-3_L_00001011-95
1 47650U 25717AF  26070.40780093  .00000000  00000+0  00000-0 0  9999
2 47650  48.0000 180.0000 0000000   0.0000 345.6000 15.76628882    17
HONGHU-3_L_00001011-96
1 47651U 22916UX  26070.40780093  .00000000  00000+0  00000-0 0  9998
2 47651  48.0000 180.0000 0000000   0.0000 349.2000 15.76628882    18
HONGHU-3_L_00001011-97
1 47652U 23162JT  26070.40780093  .00000000  00000+0  00000-0 0  9993
2 47652  48.0000 180.0000 0000000   0.0000 352.8000 15.76628882    19
HONGHU-3_L_00001011-98
1 47653U 26691TF  26070.40780093  .00000000  00000+0  00000-0 0  9994
2 47653  48.0000 180.0000 0000000   0.0000 356.4000 15.76628882    10
